     2.11           N: GPS NAV DATA                         RINEX VERSION / TYPE
teqc  2018Dec12     gpsops              20220112 01:04:10UTCPGM / RUN BY / DATE
Linux 2.6.32-573.12.1.x86_64|x86_64|gcc -static|Linux 64|=+ COMMENT
CHPI                                    MARKER NAME         COMMENT
41609M003                               MARKER NUMBER       COMMENT
4164613.9484 -4162456.9866 -2445028.7316                    COMMENT
                                                            COMMENT
This data is provided as a public service by NASA/JPL.      COMMENT
No warranty is expressed or implied regarding suitability   COMMENT
for use.  For further information, contact:                 COMMENT
Dave Stowers, NASA/JPL m/s 238-600                          COMMENT
4800 Oak Grove Drive, Pasadena CA 91109 USA                 COMMENT
                                                            END OF HEADER
 9 22  1 12  0  0  0.0-3.581927157938D-04 1.136868377216D-12 0.000000000000D+00
    2.000000000000D+01-1.156250000000D+01 4.832344143673D-09 2.398752962718D+00
   -5.271285772324D-07 2.339186379686D-03 6.442889571190D-06 5.153634218216D+03
    2.592000000000D+05 1.490116119385D-08 7.784579395893D-01 5.401670932770D-08
    9.539250080398D-01 2.505625000000D+02 1.859586465869D+00-8.085336786731D-09
    3.035840740667D-11 1.000000000000D+00 2.192000000000D+03 0.000000000000D+00
    2.000000000000D+00 0.000000000000D+00 1.396983861923D-09 2.000000000000D+01
    2.520180000000D+05 4.000000000000D+00
16 22  1 12  0  0  0.0-4.542865790427D-04-5.456968210638D-12 0.000000000000D+00
    6.000000000000D+01 8.865625000000D+01 4.284107021682D-09 2.870329348350D+00
    4.446133971214D-06 1.261670188978D-02 6.781890988350D-06 5.153591493607D+03
    2.592000000000D+05-2.048909664154D-08 2.981619470476D+00-1.732259988785D-07
    9.710440827180D-01 2.554375000000D+02 6.963193655480D-01-7.787824394146D-09
    8.714648714384D-11 1.000000000000D+00 2.192000000000D+03 0.000000000000D+00
    2.000000000000D+00 0.000000000000D+00-1.024454832077D-08 6.000000000000D+01
    2.520180000000D+05 4.000000000000D+00
17 22  1 12  0  0  0.0 5.601658485830D-04 5.229594535194D-12 0.000000000000D+00
    5.400000000000D+01-6.343750000000D+00 4.199103480943D-09 1.976431132873D+00
   -5.792826414108D-07 1.373479410540D-02 2.818182110786D-06 5.153738172531D+03
    2.592000000000D+05 1.955777406693D-07-2.283206715970D+00-1.396983861923D-07
    9.802075909063D-01 3.305625000000D+02-1.510144805307D+00-7.972474942725D-09
   -1.835790753768D-10 1.000000000000D+00 2.192000000000D+03 0.000000000000D+00
    2.000000000000D+00 0.000000000000D+00-1.117587089539D-08 5.400000000000D+01
    2.520180000000D+05 4.000000000000D+00
 8 22  1 12  0  0  0.0-5.177920684218D-05-1.591615728103D-12 0.000000000000D+00
    1.110000000000D+02 4.406250000000D+00 4.684123683982D-09 2.072715590775D+00
    3.967434167862D-07 7.106742123142D-03 3.580003976822D-06 5.153706686020D+03
    2.592000000000D+05-6.891787052155D-08-2.364593628073D+00 2.067536115646D-07
    9.651814048682D-01 3.141250000000D+02 7.758276772511D-02-8.352847929644D-09
   -1.378628853997D-10 1.000000000000D+00 2.192000000000D+03 0.000000000000D+00
    2.800000000000D+00 0.000000000000D+00 5.122274160385D-09 1.110000000000D+02
    2.520180000000D+05 4.000000000000D+00
 7 22  1 12  0  0  0.0 3.008362837136D-04 3.751665644813D-12 0.000000000000D+00
    2.600000000000D+01 2.268750000000D+01 4.772341644328D-09-8.895551130611D-01
    1.402571797371D-06 1.542076503392D-02 9.512528777122D-06 5.153703664780D+03
    2.592000000000D+05 1.788139343262D-07 1.850714395832D+00 2.961605787277D-07
    9.506690468617D-01 1.892812500000D+02-2.296763569033D+00-8.163554330520D-09
   -2.503675716715D-10 1.000000000000D+00 2.192000000000D+03 0.000000000000D+00
    2.000000000000D+00 0.000000000000D+00-1.117587089539D-08 2.600000000000D+01
    2.539980000000D+05 4.000000000000D+00
26 22  1 11 23 59 44.0 1.735365949571D-04 3.410605131648D-12 0.000000000000D+00
    1.100000000000D+01 8.171875000000D+01 5.022352058265D-09-2.435038656105D+00
    4.049390554428D-06 6.753031630069D-03 7.314607501030D-06 5.153686250687D+03
    2.591840000000D+05-9.313225746155D-09 2.840398841739D+00-1.136213541031D-07
    9.392944740479D-01 2.298437500000D+02 3.467142955735D-01-8.239271770169D-09
    8.643217167545D-11 1.000000000000D+00 2.192000000000D+03 0.000000000000D+00
    2.000000000000D+00 0.000000000000D+00 6.984919309616D-09 1.100000000000D+01
    2.548080000000D+05 4.000000000000D+00
 6 22  1 12  0  0  0.0 1.682695001364D-04 1.091393642128D-11 0.000000000000D+00
    5.300000000000D+01-8.025000000000D+01 3.793729452631D-09 1.422214665864D-01
   -4.148110747337D-06 2.614187309518D-03 7.849186658859D-06 5.153651805878D+03
    2.592000000000D+05-5.587935447693D-09-1.293364361223D+00-5.587935447693D-08
    9.858389521494D-01 2.437500000000D+02-1.003636181521D+00-7.797110495235D-09
   -1.428630936784D-10 1.000000000000D+00 2.192000000000D+03 0.000000000000D+00
    2.000000000000D+00 0.000000000000D+00 4.190951585770D-09 5.300000000000D+01
    2.550480000000D+05 4.000000000000D+00
30 22  1 12  0  0  0.0-5.060792900622D-04-2.614797267597D-12 0.000000000000D+00
    5.400000000000D+01 1.915625000000D+01 5.041281418178D-09-8.782969738972D-01
    9.890645742416D-07 5.411937600002D-03 9.465962648392D-06 5.153593832016D+03
    2.592000000000D+05 1.210719347000D-07 1.864386399566D+00-1.303851604462D-08
    9.358462035108D-01 1.803437500000D+02-2.753523110741D+00-8.213556413307D-09
   -2.300095808223D-10 1.000000000000D+00 2.192000000000D+03 0.000000000000D+00
    2.000000000000D+00 0.000000000000D+00 3.725290298462D-09 5.400000000000D+01
    2.577720000000D+05 4.000000000000D+00
